start=new Date('2022-09-13T00:00:00.000Z').valueOf();
sats=[{"OBJECT_TYPE":"PAYLOAD","LAUNCH_DATE":"2022-01-06","BSTAR":"0.00000408270000","APOAPSIS":"540.912","FILE":"3570189","NORAD_CAT_ID":"50851","RCS_SIZE":"LARGE","TLE_LINE1":"1 50851U 22001BA  22255.06248983 -.00000223  00000-0  40827-5 0  9994","EPHEMERIS_TYPE":"0","OBJECT_ID":"2022-001BA","TLE_LINE2":"2 50851  53.2174 141.1535 0001701  56.2512 303.8643 15.08843267 37846","DECAY_DATE":null,"REF_FRAME":"TEME","CENTER_NAME":"EARTH","REV_AT_EPOCH":"3784","SEMIMAJOR_AXIS":"6917.870","SITE":"AFETR","ELEMENT_SET_NO":"999","PERIAPSIS":"538.559","OBJECT_NAME":"STARLINK-3314","COUNTRY_CODE":"US","CLASSIFICATION_TYPE":"U","ECCENTRICITY":"0.00017010","MEAN_MOTION":"15.08843267","GP_ID":"212400897","INCLINATION":"53.2174","MEAN_ELEMENT_THEORY":"SGP4","MEAN_MOTION_DDOT":"0.0000000000000","TIME_SYSTEM":"UTC","ARG_OF_PERICENTER":"56.2512","MEAN_ANOMALY":"303.8643","PERIOD":"95.437","MEAN_MOTION_DOT":"-0.00000223","EPOCH":"2022-09-12T01:29:59.121312","RA_OF_ASC_NODE":"141.1535"},{"PERIAPSIS":"538.448","ELEMENT_SET_NO":"999","SITE":"AFETR","SEMIMAJOR_AXIS":"6917.903","REV_AT_EPOCH":"3654","CENTER_NAME":"EARTH","REF_FRAME":"TEME","DECAY_DATE":null,"TLE_LINE2":"2 51104  53.2172 248.3765 0001908  54.0870 306.0299 15.08832630 36543","OBJECT_ID":"2022-005A","EPHEMERIS_TYPE":"0","TLE_LINE1":"1 51104U 22005A   22255.67797660  .00000437  00000-0  45570-4 0  9993","RCS_SIZE":"LARGE","FILE":"3570509","NORAD_CAT_ID":"51104","APOAPSIS":"541.088","BSTAR":"0.00004557000000","OBJECT_TYPE":"PAYLOAD","LAUNCH_DATE":"2022-01-19","RA_OF_ASC_NODE":"248.3765","EPOCH":"2022-09-12T16:16:17.178240","MEAN_MOTION_DOT":"0.00000437","PERIOD":"95.438","MEAN_ANOMALY":"306.0299","ARG_OF_PERICENTER":"54.0870","TIME_SYSTEM":"UTC","MEAN_MOTION_DDOT":"0.0000000000000","MEAN_ELEMENT_THEORY":"SGP4","INCLINATION":"53.2172","GP_ID":"212432517","MEAN_MOTION":"15.08832630","ECCENTRICITY":"0.00019080","CLASSIFICATION_TYPE":"U","COUNTRY_CODE":"US","OBJECT_NAME":"STARLINK-3366"},{"GP_ID":"212406143","INCLINATION":"53.2156","MEAN_ELEMENT_THEORY":"SGP4","MEAN_MOTION_DDOT":"0.0000000000000","TIME_SYSTEM":"UTC","OBJECT_NAME":"STARLINK-3350","COUNTRY_CODE":"US","CLASSIFICATION_TYPE":"U","ECCENTRICITY":"0.00016750","MEAN_MOTION":"15.08845835","EPOCH":"2022-09-12T10:53:01.367520","RA_OF_ASC_NODE":"249.4026","ARG_OF_PERICENTER":"56.0714","MEAN_ANOMALY":"304.0437","PERIOD":"95.437","MEAN_MOTION_DOT":"0.00001805","NORAD_CAT_ID":"51105","FILE":"3570382","RCS_SIZE":"LARGE","TLE_LINE1":"1 51105U 22005B   22255.45348805  .00001805  00000-0  13144-3 0  9994","LAUNCH_DATE":"2022-01-19","OBJECT_TYPE":"PAYLOAD","BSTAR":"0.00013144000000","APOAPSIS":"540.886","CENTER_NAME":"EARTH","REV_AT_EPOCH":"3762","SEMIMAJOR_AXIS":"6917.863","ELEMENT_SET_NO":"999","SITE":"AFETR","PERIAPSIS":"538.569","EPHEMERIS_TYPE":"0","OBJECT_ID":"2022-005B","TLE_LINE2":"2 51105  53.2156 249.4026 0001675  56.0714 304.0437 15.08845835 37621","REF_FRAME":"TEME","DECAY_DATE":null},{"TLE_LINE1":"1 51106U 22005C   22255.76261606 -.00000512  00000-0 -14038-4 0  9992","RCS_SIZE":"LARGE","FILE":"3570509","NORAD_CAT_ID":"51106","APOAPSIS":"541.174","OBJECT_TYPE":"PAYLOAD","LAUNCH_DATE":"2022-01-19","BSTAR":"-0.00001403800000","PERIAPSIS":"538.323","SITE":"AFETR","ELEMENT_SET_NO":"999","SEMIMAJOR_AXIS":"6917.883","CENTER_NAME":"EARTH","REV_AT_EPOCH":"3655","TLE_LINE2":"2 51106  53.2166 247.9909 0002061  43.0404 317.0749 15.08839038 36557","DECAY_DATE":null,"REF_FRAME":"TEME","OBJECT_ID":"2022-005C","EPHEMERIS_TYPE":"0","MEAN_MOTION_DDOT":"0.0000000000000","TIME_SYSTEM":"UTC","GP_ID":"212433491","MEAN_ELEMENT_THEORY":"SGP4","INCLINATION":"53.2166","CLASSIFICATION_TYPE":"U","MEAN_MOTION":"15.08839038","ECCENTRICITY":"0.00020610","OBJECT_NAME":"STARLINK-3176","COUNTRY_CODE":"US","EPOCH":"2022-09-12T18:18:10.027584","RA_OF_ASC_NODE":"247.9909","MEAN_MOTION_DOT":"-0.00000512","PERIOD":"95.438","ARG_OF_PERICENTER":"43.0404","MEAN_ANOMALY":"317.0749"},{"REF_FRAME":"TEME","DECAY_DATE":null,"TLE_LINE2":"2 51107  53.2181 259.4948 0001944  52.5595 307.5574 15.08843944 36372","OBJECT_ID":"2022-005D","EPHEMERIS_TYPE":"0","ELEMENT_SET_NO":"999","SITE":"AFETR","PERIAPSIS":"538.389","REV_AT_EPOCH":"3637","CENTER_NAME":"EARTH","SEMIMAJOR_AXIS":"6917.868","APOAPSIS":"541.078","BSTAR":"0.00008852800000","OBJECT_TYPE":"PAYLOAD","LAUNCH_DATE":"2022-01-19","RCS_SIZE":"LARGE","TLE_LINE1":"1 51107U 22005D   22255.43144594  .00001121  00000-0  88528-4 0  9993","NORAD_CAT_ID":"51107","FILE":"3570189","PERIOD":"95.437","MEAN_MOTION_DOT":"0.00001121","MEAN_ANOMALY":"307.5574","ARG_OF_PERICENTER":"52.5595","RA_OF_ASC_NODE":"259.4948","EPOCH":"2022-09-12T10:21:16.929216","ECCENTRICITY":"0.00019440","MEAN_MOTION":"15.08843944","CLASSIFICATION_TYPE":"U","COUNTRY_CODE":"US","OBJECT_NAME":"STARLINK-3368","TIME_SYSTEM":"UTC","MEAN_MOTION_DDOT":"0.0000000000000","MEAN_ELEMENT_THEORY":"SGP4","INCLINATION":"53.2181","GP_ID":"212400666"},{"OBJECT_NAME":"STARLINK-3362","COUNTRY_CODE":"US","CLASSIFICATION_TYPE":"U","ECCENTRICITY":"0.00020460","MEAN_MOTION":"15.08839828","GP_ID":"212432017","MEAN_ELEMENT_THEORY":"SGP4","INCLINATION":"53.2142","MEAN_MOTION_DDOT":"0.0000000000000","TIME_SYSTEM":"UTC","ARG_OF_PERICENTER":"42.4013","MEAN_ANOMALY":"317.7137","PERIOD":"95.438","MEAN_MOTION_DOT":"-0.00000802","EPOCH":"2022-09-12T17:09:16.511616","RA_OF_ASC_NODE":"248.2289","OBJECT_TYPE":"PAYLOAD","LAUNCH_DATE":"2022-01-19","BSTAR":"-0.00003227100000","APOAPSIS":"541.161","FILE":"3570509","NORAD_CAT_ID":"51108","RCS_SIZE":"LARGE","TLE_LINE1":"1 51108U 22005E   22255.71477444 -.00000802  00000-0 -32271-4 0  9999","EPHEMERIS_TYPE":"0","OBJECT_ID":"2022-005E","TLE_LINE2":"2 51108  53.2142 248.2289 0002046  42.4013 317.7137 15.08839828 36555","DECAY_DATE":null,"REF_FRAME":"TEME","REV_AT_EPOCH":"3655","CENTER_NAME":"EARTH","SEMIMAJOR_AXIS":"6917.881","ELEMENT_SET_NO":"999","SITE":"AFETR","PERIAPSIS":"538.331"},{"LAUNCH_DATE":"2022-01-19","OBJECT_TYPE":"PAYLOAD","BSTAR":"0.00010247000000","APOAPSIS":"541.118","NORAD_CAT_ID":"51109","FILE":"3570189","RCS_SIZE":"LARGE","TLE_LINE1":"1 51109U 22005F   22255.27412426  .00001343  00000-0  10247-3 0  9997","EPHEMERIS_TYPE":"0","OBJECT_ID":"2022-005F","TLE_LINE2":"2 51109  53.2163 250.1842 0001996  44.6603 315.4550 15.08842750 36257","DECAY_DATE":null,"REF_FRAME":"TEME","REV_AT_EPOCH":"3625","CENTER_NAME":"EARTH","SEMIMAJOR_AXIS":"6917.872","SITE":"AFETR","ELEMENT_SET_NO":"999","PERIAPSIS":"538.356","OBJECT_NAME":"STARLINK-3358","COUNTRY_CODE":"US","CLASSIFICATION_TYPE":"U","ECCENTRICITY":"0.00019960","MEAN_MOTION":"15.08842750","GP_ID":"212401168","INCLINATION":"53.2163","MEAN_ELEMENT_THEORY":"SGP4","MEAN_MOTION_DDOT":"0.0000000000000","TIME_SYSTEM":"UTC","ARG_OF_PERICENTER":"44.6603","MEAN_ANOMALY":"315.4550","PERIOD":"95.437","MEAN_MOTION_DOT":"0.00001343","EPOCH":"2022-09-12T06:34:44.336064","RA_OF_ASC_NODE":"250.1842"},{"NORAD_CAT_ID":"51110","FILE":"3570509","RCS_SIZE":"LARGE","TLE_LINE1":"1 51110U 22005G   22255.70741311  .00001687  00000-0  12406-3 0  9995","BSTAR":"0.00012406000000","LAUNCH_DATE":"2022-01-19","OBJECT_TYPE":"PAYLOAD","APOAPSIS":"541.218","CENTER_NAME":"EARTH","REV_AT_EPOCH":"3655","SEMIMAJOR_AXIS":"6917.883","ELEMENT_SET_NO":"999","SITE":"AFETR","PERIAPSIS":"538.278","OBJECT_ID":"2022-005G","EPHEMERIS_TYPE":"0","REF_FRAME":"TEME","DECAY_DATE":null,"TLE_LINE2":"2 51110  53.2163 248.2603 0002125  45.4766 314.6399 15.08839148 36558","INCLINATION":"53.2163","MEAN_ELEMENT_THEORY":"SGP4","GP_ID":"212432991","TIME_SYSTEM":"UTC","MEAN_MOTION_DDOT":"0.0000000000000","COUNTRY_CODE":"US","OBJECT_NAME":"STARLINK-3344","ECCENTRICITY":"0.00021250","MEAN_MOTION":"15.08839148","CLASSIFICATION_TYPE":"U","RA_OF_ASC_NODE":"248.2603","EPOCH":"2022-09-12T16:58:40.492704","MEAN_ANOMALY":"314.6399","ARG_OF_PERICENTER":"45.4766","PERIOD":"95.438","MEAN_MOTION_DOT":"0.00001687"},{"OBJECT_NAME":"STARLINK-3173","COUNTRY_CODE":"US","CLASSIFICATION_TYPE":"U","ECCENTRICITY":"0.00016320","MEAN_MOTION":"15.08843776","GP_ID":"212432268","INCLINATION":"53.2179","MEAN_ELEMENT_THEORY":"SGP4","MEAN_MOTION_DDOT":"0.0000000000000","TIME_SYSTEM":"UTC","ARG_OF_PERICENTER":"64.6909","MEAN_ANOMALY":"295.4252","PERIOD":"95.437","MEAN_MOTION_DOT":"0.00001606","EPOCH":"2022-09-12T16:21:34.553952","RA_OF_ASC_NODE":"248.3658","LAUNCH_DATE":"2022-01-19","OBJECT_TYPE":"PAYLOAD","BSTAR":"0.00011895000000","APOAPSIS":"540.863","NORAD_CAT_ID":"51111","FILE":"3570509","RCS_SIZE":"LARGE","TLE_LINE1":"1 51111U 22005H   22255.68164993  .00001606  00000-0  11895-3 0  9990","OBJECT_ID":"2022-005H","EPHEMERIS_TYPE":"0","TLE_LINE2":"2 51111  53.2179 248.3658 0001632  64.6909 295.4252 15.08843776 36546","DECAY_DATE":null,"REF_FRAME":"TEME","CENTER_NAME":"EARTH","REV_AT_EPOCH":"3654","SEMIMAJOR_AXIS":"6917.869","ELEMENT_SET_NO":"999","SITE":"AFETR","PERIAPSIS":"538.605"},{"GP_ID":"212432518","INCLINATION":"53.2170","MEAN_ELEMENT_THEORY":"SGP4","MEAN_MOTION_DDOT":"0.0000000000000","TIME_SYSTEM":"UTC","OBJECT_NAME":"STARLINK-3374","COUNTRY_CODE":"US","CLASSIFICATION_TYPE":"U","ECCENTRICITY":"0.00021260","MEAN_MOTION":"15.08858877","EPOCH":"2022-09-12T16:53:23.177472","RA_OF_ASC_NODE":"248.2732","ARG_OF_PERICENTER":"48.6602","MEAN_ANOMALY":"311.4572","PERIOD":"95.436","MEAN_MOTION_DOT":"0.00002270","NORAD_CAT_ID":"51112","FILE":"3570509","RCS_SIZE":"LARGE","TLE_LINE1":"1 51112U 22005J   22255.70374048  .00002270  00000-0  16063-3 0  9998","LAUNCH_DATE":"2022-01-19","OBJECT_TYPE":"PAYLOAD","BSTAR":"0.00016063000000","APOAPSIS":"541.158","CENTER_NAME":"EARTH","REV_AT_EPOCH":"3655","SEMIMAJOR_AXIS":"6917.823","SITE":"AFETR","ELEMENT_SET_NO":"999","PERIAPSIS":"538.217","OBJECT_ID":"2022-005J","EPHEMERIS_TYPE":"0","TLE_LINE2":"2 51112  53.2170 248.2732 0002126  48.6602 311.4572 15.08858877 36554","DECAY_DATE":null,"REF_FRAME":"TEME"}];
